ONEWEB-0338             
1 49204U 21083U   23306.47569788  .00000124  00000+0  27271-3 0  9999
2 49204  87.9157 105.1200 0001264  75.6370 284.4904 13.20770572110397
ONEWEB-0339             
1 49205U 21083V   23306.80290330  .00000266  00000+0  69236-3 0  9995
2 49205  87.8999 150.7485 0001392  86.2574 273.8715 13.13468127106511
ONEWEB-0340             
1 49206U 21083W   23306.87573548 -.00000059  00000+0 -18146-3 0  9994
2 49206  87.9175 165.8898 0001627  85.1939 274.9379 13.18685656105091
ONEWEB-0341             
1 49207U 21083X   23306.65653182  .00000161  00000+0  37499-3 0  9998
2 49207  87.9258 165.9194 0001107  99.8927 260.2330 13.18686461105085
ONEWEB-0342             
1 49208U 21083Y   23306.48200521  .00000079  00000+0  16186-3 0  9993
2 49208  87.9149 105.1481 0001549  82.3828 277.7481 13.20771094110364
ONEWEB-0343             
1 49209U 21083Z   23306.65231494  .00000049  00000+0  92114-4 0  9999
2 49209  87.9244 165.9466 0000593 104.4698 255.6500 13.18686077105136
ONEWEB-0344             
1 49210U 21083AA  23306.61561779 -.00000136  00000+0 -40724-3 0  9997
2 49210  87.9000 150.7921 0001702  88.5144 271.6180 13.13473764105197
ONEWEB-0345             
1 49211U 21083AB  23306.55744054  .00000756  00000+0  20361-2 0  9990
2 49211  87.8995 150.7880 0002049 100.1719 259.9642 13.13474283105197
